STARLINK-1556_new
1 16033C 20055G   21326.15054295 -.00000414  00000-0 -27752-4 0  3265
2 16033  53.0547 328.0673 0001686  65.4931 228.6395 15.06408754    16
STARLINK-1556_old
1 26033C 20055G   21325.17533582  .00000023  00000-0  15256-5 0  3257
2 26033  53.0544 332.4454 0001654  65.7360 336.8868 15.06397242    19
